{
  "63709": {
    "noradId": "63709",
    "tle": [
      "1 63709C 25087N   26033.86923611  .00071424  00000+0  24110-2 0   333",
      "2 63709  53.1607  21.2656 0001572  96.2315  91.4374 15.30069007    12"
    ]
  },
  "63710": {
    "noradId": "63710",
    "tle": [
      "1 63710C 25087P   26033.86993056  .00004337  00000+0  14619-3 0   338",
      "2 63710  53.1591  21.5141 0001222  93.2760 330.2211 15.30182580    17"
    ]
  },
  "63711": {
    "noradId": "63711",
    "tle": [
      "1 63711C 25087Q   26033.85118056  .00005369  00000+0  18097-3 0   337",
      "2 63711  53.1599  21.7040 0001278  87.8810 179.9133 15.30183387    19"
    ]
  },
  "63712": {
    "noradId": "63712",
    "tle": [
      "1 63712C 25087R   26033.86993056 -.00004939  00000+0 -16649-3 0   335",
      "2 63712  53.1589  21.4887 0001264  84.4712 350.6546 15.30193535    16"
    ]
  },
  "63713": {
    "noradId": "63713",
    "tle": [
      "1 63713C 25087S   26033.87479167 -.00008009  00000+0 -26992-3 0   333",
      "2 63713  53.1612  21.0890 0001347  88.4814 205.3747 15.30199301    19"
    ]
  },
  "63714": {
    "noradId": "63714",
    "tle": [
      "1 63714C 25087T   26033.87270833 -.00000899  00000+0 -30293-4 0   332",
      "2 63714  53.1612  21.0633 0001334  90.0566 209.7715 15.30187948    11"
    ]
  },
  "63715": {
    "noradId": "63715",
    "tle": [
      "1 63715C 25087U   26033.87409722  .00001744  00000+0  58780-4 0   333",
      "2 63715  53.1611  21.1362 0001311  92.8702 173.9011 15.30186320    12"
    ]
  },
  "63716": {
    "noradId": "63716",
    "tle": [
      "1 63716C 25087V   26033.87062500  .00008419  00000+0  28379-3 0   339",
      "2 63716  53.1593  21.5412 0001180  88.5521 321.3207 15.30179265    13"
    ]
  },
  "63717": {
    "noradId": "63717",
    "tle": [
      "1 63717C 25087W   26033.86993056 -.00006868  00000+0 -23149-3 0   336",
      "2 63717  53.1612  21.1909 0001319  90.1313 136.2226 15.30196683    12"
    ]
  },
  "63718": {
    "noradId": "63718",
    "tle": [
      "1 63718C 25087X   26033.84909722  .00006101  00000+0  20565-3 0   339",
      "2 63718  53.1594  21.4574 0001243  87.3121 296.9748 15.30179521    19"
    ]
  },
  "63719": {
    "noradId": "63719",
    "tle": [
      "1 63719C 25087Y   26033.87479167  .00004069  00000+0  13716-3 0   339",
      "2 63719  53.1610  21.0334 0001567  92.0958 230.8453 15.30182395    12"
    ]
  },
  "63720": {
    "noradId": "63720",
    "tle": [
      "1 63720C 25087Z   26033.86923611  .00001359  00000+0  45805-4 0   332",
      "2 63720  53.1600  21.3069 0001311  89.7126  74.6537 15.30186255    14"
    ]
  },
  "63721": {
    "noradId": "63721",
    "tle": [
      "1 63721C 25087AA  26033.86993056  .00001128  00000+0  38035-4 0   334",
      "2 63721  53.1588  21.4655 0001240  87.5633 359.1994 15.30186781    14"
    ]
  },
  "63722": {
    "noradId": "63722",
    "tle": [
      "1 63722C 25087AB  26033.87270833 -.00005389  00000+0 -18163-3 0   331",
      "2 63722  53.1612  21.1537 0001303  89.5573 163.7402 15.30195296    18"
    ]
  },
  "63723": {
    "noradId": "63723",
    "tle": [
      "1 63723C 25087AC  26033.87409722  .00002199  00000+0  74116-4 0   338",
      "2 63723  53.1608  21.2155 0001439  96.4453 129.6088 15.30184570    19"
    ]
  },
  "63751": {
    "noradId": "63751",
    "tle": [
      "1 63751C 25089A   26033.82895833  .00001413  00000+0  10981-4 0   336",
      "2 63751  43.0005 142.6951 0001552 271.1257 291.3375 15.70824545    14"
    ]
  },
  "63752": {
    "noradId": "63752",
    "tle": [
      "1 63752C 25089B   26033.82965278 -.00002465  00000+0 -19157-4 0   332",
      "2 63752  43.0005 142.3163 0001540 280.6284  76.0712 15.70830413    13"
    ]
  },
  "63753": {
    "noradId": "63753",
    "tle": [
      "1 63753C 25089C   26033.83659722 -.00113950  00000+0 -88500-3 0   337",
      "2 63753  43.0003 142.0500 0001441 270.0720 216.1134 15.70953786    16"
    ]
  },
  "63754": {
    "noradId": "63754",
    "tle": [
      "1 63754C 25089D   26033.83381944  .00001716  00000+0  13338-4 0   338",
      "2 63754  43.0005 142.4401 0001774 272.0351  48.1388 15.70824413    12"
    ]
  },
  "63755": {
    "noradId": "63755",
    "tle": [
      "1 63755C 25089E   26033.83381944 -.00011468  00000+0 -88999-4 0   331",
      "2 63755  43.0005 142.5893 0001760 269.7936 350.1532 15.70869442    14"
    ]
  },
  "63756": {
    "noradId": "63756",
    "tle": [
      "1 63756C 25089F   26033.83590278  .00001168  00000+0  90769-5 0   337",
      "2 63756  43.0007 142.3521 0001527 277.0275  85.0001 15.70825985    11"
    ]
  },
  "63757": {
    "noradId": "63757",
    "tle": [
      "1 63757C 25089G   26033.83173611  .00008767  00000+0  68131-4 0   335",
      "2 63757  43.0003 141.9279 0001578 264.1930 254.6150 15.70816975    12"
    ]
  },
  "63758": {
    "noradId": "63758",
    "tle": [
      "1 63758C 25089H   26033.83590278 -.00010378  00000+0 -80646-4 0   336",
      "2 63758  43.0007 142.5005 0001471 275.7633  26.1402 15.70837186    10"
    ]
  },
  "63759": {
    "noradId": "63759",
    "tle": [
      "1 63759C 25089J   26033.83312500  .00007141  00000+0  55492-4 0   330",
      "2 63759  43.0005 142.2176 0001495 270.3379 136.0873 15.70820343    19"
    ]
  },
  "63760": {
    "noradId": "63760",
    "tle": [
      "1 63760C 25089K   26033.83243056  .00006767  00000+0  52584-4 0   333",
      "2 63760  43.0004 141.9971 0001453 276.2198 216.4627 15.70819465    10"
    ]
  },
  "63761": {
    "noradId": "63761",
    "tle": [
      "1 63761C 25089L   26033.83520833  .00008557  00000+0  66486-4 0   330",
      "2 63761  43.0006 142.1296 0001436 275.4622 172.8165 15.70821100    11"
    ]
  },
  "63762": {
    "noradId": "63762",
    "tle": [
      "1 63762C 25089M   26033.83590278  .00013237  00000+0  10287-3 0   339",
      "2 63762  43.0004 142.7232 0001687 264.9215 306.8142 15.70811986    10"
    ]
  },
  "63763": {
    "noradId": "63763",
    "tle": [
      "1 63763C 25089N   26033.83381944 -.00005836  00000+0 -45350-4 0   336",
      "2 63763  43.0007 142.2247 0001541 261.0345 144.1601 15.70833377    17"
    ]
  },
  "63764": {
    "noradId": "63764",
    "tle": [
      "1 63764C 25089P   26033.86923611 -.00002968  00000+0 -10754-3 0   335",
      "2 63764  43.0015 242.0033 0001503 268.0070 350.9189 15.27571754    17"
    ]
  },
  "63765": {
    "noradId": "63765",
    "tle": [
      "1 63765C 25089Q   26033.87340278 -.00000166  00000+0 -60103-5 0   332",
      "2 63765  43.0015 242.0137 0001364 272.5052 355.2132 15.27566058    15"
    ]
  },
  "63766": {
    "noradId": "63766",
    "tle": [
      "1 63766C 25089R   26033.86854167 -.00006784  00000+0 -24574-3 0   331",
      "2 63766  42.9998 242.2668 0001979 264.0854 244.8921 15.27579617    17"
    ]
  },
  "63767": {
    "noradId": "63767",
    "tle": [
      "1 63767C 25089S   26033.87548611 -.00010486  00000+0 -37967-3 0   331",
      "2 63767  42.9989 241.8466 0001281 261.4806  81.3430 15.27601298    13"
    ]
  },
  "63768": {
    "noradId": "63768",
    "tle": [
      "1 63768C 25089T   26033.87131944  .00002860  00000+0  10362-3 0   334",
      "2 63768  42.9991 241.6157 0001855 268.3343 157.7085 15.27568827    15"
    ]
  },
  "63769": {
    "noradId": "63769",
    "tle": [
      "1 63769C 25089U   26033.86993056 -.00000485  00000+0 -17559-4 0   333",
      "2 63769  43.0002 241.9460 0001499 268.6707  15.2892 15.27571039    15"
    ]
  },
  "63770": {
    "noradId": "63770",
    "tle": [
      "1 63770C 25089V   26033.86923611  .00003743  00000+0  13558-3 0   337",
      "2 63770  42.9993 241.6421 0001452 260.7062 146.7888 15.27567621    11"
    ]
  },
  "63771": {
    "noradId": "63771",
    "tle": [
      "1 63771C 25089W   26033.87201389  .00006869  00000+0  24883-3 0   335",
      "2 63771  42.9991 241.7288 0001493 266.4919 113.8405 15.27566692    18"
    ]
  },
  "63773": {
    "noradId": "63773",
    "tle": [
      "1 63773C 25089X   26033.86993056  .00002462  00000+0  89204-4 0   339",
      "2 63773  42.9990 241.6041 0001489 266.1732 159.3128 15.27567912    13"
    ]
  },
  "63774": {
    "noradId": "63774",
    "tle": [
      "1 63774C 25089Y   26033.86993056  .00010683  00000+0  38674-3 0   338",
      "2 63774  42.9989 237.9424 0001517 279.4054 214.0800 15.27584320    19"
    ]
  },
  "63775": {
    "noradId": "63775",
    "tle": [
      "1 63775C 25091A   26033.86923611 -.00000163  00000+0 -59170-5 0   332",
      "2 63775  43.0000 249.0233 0001412 263.9160 275.5277 15.27572805    13"
    ]
  },
  "63776": {
    "noradId": "63776",
    "tle": [
      "1 63776C 25091B   26033.86715278 -.00003719  00000+0 -13471-3 0   333",
      "2 63776  42.9985 249.4978 0001778 268.1069  68.8438 15.27574718    11"
    ]
  },
  "63777": {
    "noradId": "63777",
    "tle": [
      "1 63777C 25091C   26033.87270833 -.00000918  00000+0 -33243-4 0   336",
      "2 63777  43.0015 242.0064 0001786 265.7700 308.7329 15.27571070    10"
    ]
  },
  "63778": {
    "noradId": "63778",
    "tle": [
      "1 63778C 25091D   26033.87340278 -.00006646  00000+0 -24079-3 0   338",
      "2 63778  43.0016 249.2268 0001527 271.9965 198.4176 15.27572965    10"
    ]
  },
  "63779": {
    "noradId": "63779",
    "tle": [
      "1 63779C 25091E   26033.87062500  .00005602  00000+0  20292-3 0   330",
      "2 63779  42.9987 249.5619 0001509 263.2127  57.4704 15.27568798    13"
    ]
  },
  "63780": {
    "noradId": "63780",
    "tle": [
      "1 63780C 25091F   26033.87340278 -.00004066  00000+0 -14734-3 0   332",
      "2 63780  42.9991 249.4108 0001531 271.3326 121.2613 15.27568893    13"
    ]
  },
  "63781": {
    "noradId": "63781",
    "tle": [
      "1 63781C 25091G   26033.87340278 -.00004211  00000+0 -15254-3 0   333",
      "2 63781  42.9994 249.3601 0001711 267.2562 146.5487 15.27577917    16"
    ]
  }
}